[{"CCSDS_OMM_VERS":"2.0","COMMENT":"GENERATED VIA SPACE-TRACK.ORG API","CREATION_DATE":"2017-09-03T21:55:25","ORIGINATOR":"18 SPCS","OBJECT_NAME":"UPSAT","OBJECT_ID":"1998-067LX","CENTER_NAME":"EARTH","REF_FRAME":"TEME","TIME_SYSTEM":"UTC","MEAN_ELEMENT_THEORY":"SGP4","EPOCH":"2017-09-03T14:10:02.813376","MEAN_MOTION":"15.57923469","ECCENTRICITY":"0.00045770","INCLINATION":"51.6408","RA_OF_ASC_NODE":"5.7371","ARG_OF_PERICENTER":"266.2884","MEAN_ANOMALY":"93.7585","EPHEMERIS_TYPE":"0","CLASSIFICATION_TYPE":"U","NORAD_CAT_ID":"42716","ELEMENT_SET_NO":"999","REV_AT_EPOCH":"1685","BSTAR":"0.00033221000000","MEAN_MOTION_DOT":"0.00024894","MEAN_MOTION_DDOT":"0.0000000000000","SEMIMAJOR_AXIS":"6771.804","PERIOD":"92.430","APOAPSIS":"396.769","PERIAPSIS":"390.570","OBJECT_TYPE":"PAYLOAD","RCS_SIZE":"SMALL","COUNTRY_CODE":"GREC","LAUNCH_DATE":"1998-11-20","SITE":"TTMTR","DECAY_DATE":null,"FILE":"2176266","GP_ID":"113792943","TLE_LINE0":"0 UPSAT","TLE_LINE1":"1 42716U 98067LX  17246.59031034 +.00024894 +00000-0 +33221-3 0  9996","TLE_LINE2":"2 42716 051.6408 005.7371 0004577 266.2884 093.7585 15.57923469016856"},{"CCSDS_OMM_VERS":"2.0","COMMENT":"GENERATED VIA SPACE-TRACK.ORG API","CREATION_DATE":"2017-09-03T23:01:00","ORIGINATOR":"18 SPCS","OBJECT_NAME":"UPSAT","OBJECT_ID":"1998-067LX","CENTER_NAME":"EARTH","REF_FRAME":"TEME","TIME_SYSTEM":"UTC","MEAN_ELEMENT_THEORY":"SGP4","EPOCH":"2017-09-03T18:47:09.199968","MEAN_MOTION":"15.57935745","ECCENTRICITY":"0.00045900","INCLINATION":"51.6408","RA_OF_ASC_NODE":"4.7724","ARG_OF_PERICENTER":"267.5489","MEAN_ANOMALY":"92.4978","EPHEMERIS_TYPE":"0","CLASSIFICATION_TYPE":"U","NORAD_CAT_ID":"42716","ELEMENT_SET_NO":"999","REV_AT_EPOCH":"1688","BSTAR":"0.00035457000000","MEAN_MOTION_DOT":"0.00026621","MEAN_MOTION_DDOT":"0.0000000000000","SEMIMAJOR_AXIS":"6771.769","PERIOD":"92.429","APOAPSIS":"396.742","PERIAPSIS":"390.525","OBJECT_TYPE":"PAYLOAD","RCS_SIZE":"SMALL","COUNTRY_CODE":"GREC","LAUNCH_DATE":"1998-11-20","SITE":"TTMTR","DECAY_DATE":null,"FILE":"2176338","GP_ID":"113794788","TLE_LINE0":"0 UPSAT","TLE_LINE1":"1 42716U 98067LX  17246.78274537  .00026621  00000-0  35457-3 0  9997","TLE_LINE2":"2 42716  51.6408   4.7724 0004590 267.5489  92.4978 15.57935745 16882"},{"CCSDS_OMM_VERS":"2.0","COMMENT":"GENERATED VIA SPACE-TRACK.ORG API","CREATION_DATE":"2017-09-04T07:16:11","ORIGINATOR":"18 SPCS","OBJECT_NAME":"UPSAT","OBJECT_ID":"1998-067LX","CENTER_NAME":"EARTH","REF_FRAME":"TEME","TIME_SYSTEM":"UTC","MEAN_ELEMENT_THEORY":"SGP4","EPOCH":"2017-09-04T04:01:21.599040","MEAN_MOTION":"15.57958699","ECCENTRICITY":"0.00045950","INCLINATION":"51.6408","RA_OF_ASC_NODE":"2.8425","ARG_OF_PERICENTER":"268.9997","MEAN_ANOMALY":"91.0469","EPHEMERIS_TYPE":"0","CLASSIFICATION_TYPE":"U","NORAD_CAT_ID":"42716","ELEMENT_SET_NO":"999","REV_AT_EPOCH":"1694","BSTAR":"0.00037287000000","MEAN_MOTION_DOT":"0.00028051","MEAN_MOTION_DDOT":"0.0000000000000","SEMIMAJOR_AXIS":"6771.702","PERIOD":"92.428","APOAPSIS":"396.679","PERIAPSIS":"390.456","OBJECT_TYPE":"PAYLOAD","RCS_SIZE":"SMALL","COUNTRY_CODE":"GREC","LAUNCH_DATE":"1998-11-20","SITE":"TTMTR","DECAY_DATE":null,"FILE":"2176486","GP_ID":"113805741","TLE_LINE0":"0 UPSAT","TLE_LINE1":"1 42716U 98067LX  17247.16761110  .00028051  00000-0  37287-3 0  9990","TLE_LINE2":"2 42716  51.6408   2.8425 0004595 268.9997  91.0469 15.57958699 16943"},{"CCSDS_OMM_VERS":"2.0","COMMENT":"GENERATED VIA SPACE-TRACK.ORG API","CREATION_DATE":"2017-09-04T21:47:08","ORIGINATOR":"18 SPCS","OBJECT_NAME":"UPSAT","OBJECT_ID":"1998-067LX","CENTER_NAME":"EARTH","REF_FRAME":"TEME","TIME_SYSTEM":"UTC","MEAN_ELEMENT_THEORY":"SGP4","EPOCH":"2017-09-04T13:15:33.528960","MEAN_MOTION":"15.57979635","ECCENTRICITY":"0.00045750","INCLINATION":"51.6408","RA_OF_ASC_NODE":"0.9134","ARG_OF_PERICENTER":"270.9793","MEAN_ANOMALY":"89.0675","EPHEMERIS_TYPE":"0","CLASSIFICATION_TYPE":"U","NORAD_CAT_ID":"42716","ELEMENT_SET_NO":"999","REV_AT_EPOCH":"1700","BSTAR":"0.00035350000000","MEAN_MOTION_DOT":"0.00026584","MEAN_MOTION_DDOT":"0.0000000000000","SEMIMAJOR_AXIS":"6771.642","PERIOD":"92.427","APOAPSIS":"396.605","PERIAPSIS":"390.408","OBJECT_TYPE":"PAYLOAD","RCS_SIZE":"SMALL","COUNTRY_CODE":"GREC","LAUNCH_DATE":"1998-11-20","SITE":"TTMTR","DECAY_DATE":null,"FILE":"2176548","GP_ID":"113818975","TLE_LINE0":"0 UPSAT","TLE_LINE1":"1 42716U 98067LX  17247.55247140 +.00026584 +00000-0 +35350-3 0  9993","TLE_LINE2":"2 42716 051.6408 000.9134 0004575 270.9793 089.0675 15.57979635017001"},{"CCSDS_OMM_VERS":"2.0","COMMENT":"GENERATED VIA SPACE-TRACK.ORG API","CREATION_DATE":"2017-09-05T05:39:29","ORIGINATOR":"18 SPCS","OBJECT_NAME":"UPSAT","OBJECT_ID":"1998-067LX","CENTER_NAME":"EARTH","REF_FRAME":"TEME","TIME_SYSTEM":"UTC","MEAN_ELEMENT_THEORY":"SGP4","EPOCH":"2017-09-04T17:52:39.313344","MEAN_MOTION":"15.57992168","ECCENTRICITY":"0.00045880","INCLINATION":"51.6409","RA_OF_ASC_NODE":"359.9488","ARG_OF_PERICENTER":"272.1766","MEAN_ANOMALY":"87.8701","EPHEMERIS_TYPE":"0","CLASSIFICATION_TYPE":"U","NORAD_CAT_ID":"42716","ELEMENT_SET_NO":"999","REV_AT_EPOCH":"1703","BSTAR":"0.00037150000000","MEAN_MOTION_DOT":"0.00027981","MEAN_MOTION_DDOT":"0.0000000000000","SEMIMAJOR_AXIS":"6771.605","PERIOD":"92.426","APOAPSIS":"396.577","PERIAPSIS":"390.363","OBJECT_TYPE":"PAYLOAD","RCS_SIZE":"SMALL","COUNTRY_CODE":"GREC","LAUNCH_DATE":"1998-11-20","SITE":"TTMTR","DECAY_DATE":null,"FILE":"2176549","GP_ID":"113828895","TLE_LINE0":"0 UPSAT","TLE_LINE1":"1 42716U 98067LX  17247.74489946 +.00027981 +00000-0 +37150-3 0  9998","TLE_LINE2":"2 42716 051.6409 359.9488 0004588 272.1766 087.8701 15.57992168017034"},{"CCSDS_OMM_VERS":"2.0","COMMENT":"GENERATED VIA SPACE-TRACK.ORG API","CREATION_DATE":"2017-09-05T17:24:32","ORIGINATOR":"18 SPCS","OBJECT_NAME":"UPSAT","OBJECT_ID":"1998-067LX","CENTER_NAME":"EARTH","REF_FRAME":"TEME","TIME_SYSTEM":"UTC","MEAN_ELEMENT_THEORY":"SGP4","EPOCH":"2017-09-05T04:39:12.255840","MEAN_MOTION":"15.58027356","ECCENTRICITY":"0.00045990","INCLINATION":"51.6409","RA_OF_ASC_NODE":"357.6971","ARG_OF_PERICENTER":"273.9989","MEAN_ANOMALY":"86.0477","EPHEMERIS_TYPE":"0","CLASSIFICATION_TYPE":"U","NORAD_CAT_ID":"42716","ELEMENT_SET_NO":"999","REV_AT_EPOCH":"1710","BSTAR":"0.00048325000000","MEAN_MOTION_DOT":"0.00036640","MEAN_MOTION_DDOT":"0.0000000000000","SEMIMAJOR_AXIS":"6771.503","PERIOD":"92.424","APOAPSIS":"396.482","PERIAPSIS":"390.254","OBJECT_TYPE":"PAYLOAD","RCS_SIZE":"SMALL","COUNTRY_CODE":"GREC","LAUNCH_DATE":"1998-11-20","SITE":"TTMTR","DECAY_DATE":null,"FILE":"2176936","GP_ID":"113833028","TLE_LINE0":"0 UPSAT","TLE_LINE1":"1 42716U 98067LX  17248.19389185  .00036640  00000-0  48325-3 0  9990","TLE_LINE2":"2 42716  51.6409 357.6971 0004599 273.9989  86.0477 15.58027356 17102"},{"CCSDS_OMM_VERS":"2.0","COMMENT":"GENERATED VIA SPACE-TRACK.ORG API","CREATION_DATE":"2017-09-06T14:41:31","ORIGINATOR":"18 SPCS","OBJECT_NAME":"UPSAT","OBJECT_ID":"1998-067LX","CENTER_NAME":"EARTH","REF_FRAME":"TEME","TIME_SYSTEM":"UTC","MEAN_ELEMENT_THEORY":"SGP4","EPOCH":"2017-09-05T12:21:01.025280","MEAN_MOTION":"15.58048505","ECCENTRICITY":"0.00046070","INCLINATION":"51.6409","RA_OF_ASC_NODE":"356.0888","ARG_OF_PERICENTER":"275.5537","MEAN_ANOMALY":"84.4929","EPHEMERIS_TYPE":"0","CLASSIFICATION_TYPE":"U","NORAD_CAT_ID":"42716","ELEMENT_SET_NO":"999","REV_AT_EPOCH":"1715","BSTAR":"0.00047495000000","MEAN_MOTION_DOT":"0.00036028","MEAN_MOTION_DDOT":"0.0000000000000","SEMIMAJOR_AXIS":"6771.442","PERIOD":"92.423","APOAPSIS":"396.427","PERIAPSIS":"390.187","OBJECT_TYPE":"PAYLOAD","RCS_SIZE":"SMALL","COUNTRY_CODE":"GREC","LAUNCH_DATE":"1998-11-20","SITE":"TTMTR","DECAY_DATE":null,"FILE":"2177112","GP_ID":"113848827","TLE_LINE0":"0 UPSAT","TLE_LINE1":"1 42716U 98067LX  17248.51459520  .00036028  00000-0  47495-3 0  9994","TLE_LINE2":"2 42716  51.6409 356.0888 0004607 275.5537  84.4929 15.58048505 17157"},{"CCSDS_OMM_VERS":"2.0","COMMENT":"GENERATED VIA SPACE-TRACK.ORG API","CREATION_DATE":"2017-09-06T02:45:41","ORIGINATOR":"18 SPCS","OBJECT_NAME":"UPSAT","OBJECT_ID":"1998-067LX","CENTER_NAME":"EARTH","REF_FRAME":"TEME","TIME_SYSTEM":"UTC","MEAN_ELEMENT_THEORY":"SGP4","EPOCH":"2017-09-05T20:02:49.418016","MEAN_MOTION":"15.58067193","ECCENTRICITY":"0.00046090","INCLINATION":"51.6410","RA_OF_ASC_NODE":"354.4808","ARG_OF_PERICENTER":"277.0758","MEAN_ANOMALY":"82.9710","EPHEMERIS_TYPE":"0","CLASSIFICATION_TYPE":"U","NORAD_CAT_ID":"42716","ELEMENT_SET_NO":"999","REV_AT_EPOCH":"1720","BSTAR":"0.00040687000000","MEAN_MOTION_DOT":"0.00030792","MEAN_MOTION_DDOT":"0.0000000000000","SEMIMAJOR_AXIS":"6771.388","PERIOD":"92.422","APOAPSIS":"396.374","PERIAPSIS":"390.132","OBJECT_TYPE":"PAYLOAD","RCS_SIZE":"SMALL","COUNTRY_CODE":"GREC","LAUNCH_DATE":"1998-11-20","SITE":"TTMTR","DECAY_DATE":null,"FILE":"2177042","GP_ID":"113847844","TLE_LINE0":"0 UPSAT","TLE_LINE1":"1 42716U 98067LX  17248.83529419 +.00030792 +00000-0 +40687-3 0  9992","TLE_LINE2":"2 42716 051.6410 354.4808 0004609 277.0758 082.9710 15.58067193017208"}]